[{"OBJECT_NAME":"HULIANWANG DIGUI-151","OBJECT_ID":"2026-013F","EPOCH":"2026-03-09T17:38:25.543968","MEAN_MOTION":13.45151704,"ECCENTRICITY":0.00185138,"INCLINATION":50.0905,"RA_OF_ASC_NODE":352.8844,"ARG_OF_PERICENTER":290.4029,"MEAN_ANOMALY":69.4862,"EPHEMERIS_TYPE":0,"CLASSIFICATION_TYPE":"U","NORAD_CAT_ID":67527,"ELEMENT_SET_NO":999,"REV_AT_EPOCH":681,"BSTAR":0.00015887467,"MEAN_MOTION_DOT":-3.5e-7,"MEAN_MOTION_DDOT":0},{"OBJECT_NAME":"NIMBUS 2 DEB","OBJECT_ID":"1966-040CF","EPOCH":"2026-03-06T07:39:08.633088","MEAN_MOTION":13.56307022,"ECCENTRICITY":0.00392458,"INCLINATION":100.6074,"RA_OF_ASC_NODE":97.3624,"ARG_OF_PERICENTER":37.4234,"MEAN_ANOMALY":339.5543,"EPHEMERIS_TYPE":0,"CLASSIFICATION_TYPE":"U","NORAD_CAT_ID":59976,"ELEMENT_SET_NO":999,"REV_AT_EPOCH":66003,"BSTAR":0.0050177476,"MEAN_MOTION_DOT":3.496e-5,"MEAN_MOTION_DDOT":0}]
